{"type": "FeatureCollection", "features": [ {"type": "Feature", "properties": {"norad_id": 30395, "name": "FENGYUN 1C DEB", "group": "fengyun-1c-debris", "lat": 41.889354364134284, "lon": -15.283423133602756, "alt_km": 786.5682372896736, "timestamp": "2025-12-02T23:34:15.792526+00:00", "meta": {"OBJECT_NAME": "FENGYUN 1C DEB", "OBJECT_ID": "1999-025ADJ", "EPOCH": "2025-12-01T23:34:34.483584", "MEAN_MOTION": 13.96666036, "ECCENTRICITY": 0.01608716, "INCLINATION": 98.9309, "RA_OF_ASC_NODE": 351.8535, "ARG_OF_PERICENTER": 55.7692, "MEAN_ANOMALY": 3.0049, "EPHEMERIS_TYPE": 0, "CLASSIFICATION_TYPE": "U", "NORAD_CAT_ID": 30395, "ELEMENT_SET_NO": 999, "REV_AT_EPOCH": 95873, "BSTAR": 0.00064515709, "MEAN_MOTION_DOT": 9.56e-06, "MEAN_MOTION_DDOT": 0}, "tle": {"line1": "1 30395U 99025ADJ 25335.98234356  .00000956  00000+0  64516-3 0  9997", "line2": "2 30395  98.9309 351.8535 0160871  55.7692   3.0049 13.96666036958731"}}, "geometry": {"type": "Point", "coordinates": [-15.283423133602756, 41.889354364134284]}}, {"type": "Feature", "properties": {"norad_id": 30396, "name": "FENGYUN 1C DEB", "group": "fengyun-1c-debris", "lat": -41.62506258929522, "lon": -9.660358782210382, "alt_km": 1038.2920131779965, "timestamp": "2025-12-02T23:34:15.792536+00:00", "meta": {"OBJECT_NAME": "FENGYUN 1C DEB", "OBJECT_ID": "1999-025ADK", "EPOCH": "2025-12-01T23:48:48.049920", "MEAN_MOTION": 13.87163943, "ECCENTRICITY": 0.01345654, "INCLINATION": 98.2242, "RA_OF_ASC_NODE": 342.0842, "ARG_OF_PERICENTER": 159.3065, "MEAN_ANOMALY": 257.4929, "EPHEMERIS_TYPE": 0, "CLASSIFICATION_TYPE": "U", "NORAD_CAT_ID": 30396, "ELEMENT_SET_NO": 999, "REV_AT_EPOCH": 95430, "BSTAR": 0.00014450773, "MEAN_MOTION_DOT": 1.47e-06, "MEAN_MOTION_DDOT": 0}, "tle": {"line1": "1 30396U 99025ADK 25335.99222280  .00000147  00000+0  14451-3 0  9997", "line2": "2 30396  98.2242 342.0842 0134565 159.3065 257.4929 13.87163943954300"}}, "geometry": {"type": "Point", "coordinates": [-9.660358782210382, -41.62506258929522]}}, {"type": "Feature", "properties": {"norad_id": 30397, "name": "FENGYUN 1C DEB", "group": "fengyun-1c-debris", "lat": 15.270483455625351, "lon": -51.697055881122154, "alt_km": 821.1475415251716, "timestamp": "2025-12-02T23:34:15.792546+00:00", "meta": {"OBJECT_NAME": "FENGYUN 1C DEB", "OBJECT_ID": "1999-025ADL", "EPOCH": "2025-12-02T09:19:19.736832", "MEAN_MOTION": 13.98531692, "ECCENTRICITY": 0.0149913, "INCLINATION": 98.4058, "RA_OF_ASC_NODE": 125.4448, "ARG_OF_PERICENTER": 121.4792, "MEAN_ANOMALY": 294.304, "EPHEMERIS_TYPE": 0, "CLASSIFICATION_TYPE": "U", "NORAD_CAT_ID": 30397, "ELEMENT_SET_NO": 999, "REV_AT_EPOCH": 95620, "BSTAR": 0.0014182, "MEAN_MOTION_DOT": 2.2e-05, "MEAN_MOTION_DDOT": 0}, "tle": {"line1": "1 30397U 99025ADL 25336.38842288  .00002200  00000+0  14182-2 0  9990", "line2": "2 30397  98.4058 125.4448 0149913 121.4792 294.3040 13.98531692956200"}}, "geometry": {"type": "Point", "coordinates": [-51.697055881122154, 15.270483455625351]}}, {"type": "Feature", "properties": {"norad_id": 30398, "name": "FENGYUN 1C DEB", "group": "fengyun-1c-debris", "lat": -14.309279148056204, "lon": 50.76000539959706, "alt_km": 1048.4519130275276, "timestamp": "2025-12-02T23:34:15.792557+00:00", "meta": {"OBJECT_NAME": "FENGYUN 1C DEB", "OBJECT_ID": "1999-025ADM", "EPOCH": "2025-12-02T00:03:04.849344", "MEAN_MOTION": 13.78677915, "ECCENTRICITY": 0.01732326, "INCLINATION": 99.7138, "RA_OF_ASC_NODE": 232.2604, "ARG_OF_PERICENTER": 324.073, "MEAN_ANOMALY": 50.568, "EPHEMERIS_TYPE": 0, "CLASSIFICATION_TYPE": "U", "NORAD_CAT_ID": 30398, "ELEMENT_SET_NO": 999, "REV_AT_EPOCH": 94609, "BSTAR": 0.00063440596, "MEAN_MOTION_DOT": 6.72e-06, "MEAN_MOTION_DDOT": 0}, "tle": {"line1": "1 30398U 99025ADM 25336.00213946  .00000672  00000+0  63441-3 0  9997", "line2": "2 30398  99.7138 232.2604 0173232 324.0730  50.5680 13.78677915946094"}}, "geometry": {"type": "Point", "coordinates": [50.76000539959706, -14.309279148056204]}}, {"type": "Feature", "properties": {"norad_id": 30400, "name": "FENGYUN 1C DEB", "group": "fengyun-1c-debris", "lat": 9.334474868676825, "lon": -97.1925619838212, "alt_km": 697.7540653988463, "timestamp": "2025-12-02T23:34:15.792567+00:00", "meta": {"OBJECT_NAME": "FENGYUN 1C DEB", "OBJECT_ID": "1999-025ADP", "EPOCH": "2025-12-02T08:46:04.681344", "MEAN_MOTION": 14.09643735, "ECCENTRICITY": 0.0228584, "INCLINATION": 99.1554, "RA_OF_ASC_NODE": 263.6988, "ARG_OF_PERICENTER": 4.5413, "MEAN_ANOMALY": 116.374, "EPHEMERIS_TYPE": 0, "CLASSIFICATION_TYPE": "U", "NORAD_CAT_ID": 30400, "ELEMENT_SET_NO": 999, "REV_AT_EPOCH": 95368, "BSTAR": 0.0053214, "MEAN_MOTION_DOT": 0.00011855, "MEAN_MOTION_DDOT": 0}, "tle": {"line1": "1 30400U 99025ADP 25336.36533196  .00011855  00000+0  53214-2 0  9993", "line2": "2 30400  99.1554 263.6988 0228584   4.5413 116.3740 14.09643735953685"}}, "geometry": {"type": "Point", "coordinates": [-97.1925619838212, 9.334474868676825]}}, {"type": "Feature", "properties": {"norad_id": 30401, "name": "FENGYUN 1C DEB", "group": "fengyun-1c-debris", "lat": 64.42730061551708, "lon": 52.85416492839411, "alt_km": 734.1525606726309, "timestamp": "2025-12-02T23:34:15.792577+00:00", "meta": {"OBJECT_NAME": "FENGYUN 1C DEB", "OBJECT_ID": "1999-025ADQ", "EPOCH": "2025-12-02T09:35:03.562656", "MEAN_MOTION": 14.27978658, "ECCENTRICITY": 0.0107444, "INCLINATION": 98.9478, "RA_OF_ASC_NODE": 213.0347, "ARG_OF_PERICENTER": 157.3182, "MEAN_ANOMALY": 203.2798, "EPHEMERIS_TYPE": 0, "CLASSIFICATION_TYPE": "U", "NORAD_CAT_ID": 30401, "ELEMENT_SET_NO": 999, "REV_AT_EPOCH": 98156, "BSTAR": 0.0001942, "MEAN_MOTION_DOT": 4.66e-06, "MEAN_MOTION_DDOT": 0}, "tle": {"line1": "1 30401U 99025ADQ 25336.39934679  .00000466  00000+0  19420-3 0  9996", "line2": "2 30401  98.9478 213.0347 0107444 157.3182 203.2798 14.27978658981569"}}, "geometry": {"type": "Point", "coordinates": [52.85416492839411, 64.42730061551708]}}, {"type": "Feature", "properties": {"norad_id": 30403, "name": "FENGYUN 1C DEB", "group": "fengyun-1c-debris", "lat": 24.54914908133802, "lon": -120.66734978305134, "alt_km": 832.1587643808198, "timestamp": "2025-12-02T23:34:15.792587+00:00", "meta": {"OBJECT_NAME": "FENGYUN 1C DEB", "OBJECT_ID": "1999-025ADS", "EPOCH": "2025-12-02T04:16:03.679104", "MEAN_MOTION": 14.21392665, "ECCENTRICITY": 0.00754654, "INCLINATION": 99.0608, "RA_OF_ASC_NODE": 54.3277, "ARG_OF_PERICENTER": 53.8438, "MEAN_ANOMALY": 306.969, "EPHEMERIS_TYPE": 0, "CLASSIFICATION_TYPE": "U", "NORAD_CAT_ID": 30403, "ELEMENT_SET_NO": 999, "REV_AT_EPOCH": 96656, "BSTAR": 0.0021385101, "MEAN_MOTION_DOT": 4.764e-05, "MEAN_MOTION_DDOT": 0}, "tle": {"line1": "1 30403U 99025ADS 25336.17782036  .00004764  00000+0  21385-2 0  9999", "line2": "2 30403  99.0608  54.3277 0075465  53.8438 306.9690 14.21392665966564"}}, "geometry": {"type": "Point", "coordinates": [-120.66734978305134, 24.54914908133802]}}, {"type": "Feature", "properties": {"norad_id": 30404, "name": "FENGYUN 1C DEB", "group": "fengyun-1c-debris", "lat": 31.49446024677892, "lon": 63.018382159175516, "alt_km": 1295.2491569948888, "timestamp": "2025-12-02T23:34:15.792597+00:00", "meta": {"OBJECT_NAME": "FENGYUN 1C DEB", "OBJECT_ID": "1999-025ADT", "EPOCH": "2025-11-30T17:24:43.426368", "MEAN_MOTION": 13.34313011, "ECCENTRICITY": 0.03760074, "INCLINATION": 99.8332, "RA_OF_ASC_NODE": 66.9455, "ARG_OF_PERICENTER": 165.4409, "MEAN_ANOMALY": 195.791, "EPHEMERIS_TYPE": 0, "CLASSIFICATION_TYPE": "U", "NORAD_CAT_ID": 30404, "ELEMENT_SET_NO": 999, "REV_AT_EPOCH": 57876, "BSTAR": 0.0014039979, "MEAN_MOTION_DOT": 1.003e-05, "MEAN_MOTION_DDOT": 0}, "tle": {"line1": "1 30404U 99025ADT 25334.72550262  .00001003  00000+0  14040-2 0  9996", "line2": "2 30404  99.8332  66.9455 0376007 165.4409 195.7910 13.34313011578769"}}, "geometry": {"type": "Point", "coordinates": [63.018382159175516, 31.49446024677892]}}, {"type": "Feature", "properties": {"norad_id": 30405, "name": "FENGYUN 1C DEB", "group": "fengyun-1c-debris", "lat": 70.14318781397526, "lon": 45.50254718629119, "alt_km": 801.0432201691738, "timestamp": "2025-12-02T23:34:15.792607+00:00", "meta": {"OBJECT_NAME": "FENGYUN 1C DEB", "OBJECT_ID": "1999-025ADU", "EPOCH": "2025-12-02T01:57:34.279200", "MEAN_MOTION": 14.28757262, "ECCENTRICITY": 0.00516482, "INCLINATION": 98.7948, "RA_OF_ASC_NODE": 69.9787, "ARG_OF_PERICENTER": 183.9789, "MEAN_ANOMALY": 299.706, "EPHEMERIS_TYPE": 0, "CLASSIFICATION_TYPE": "U", "NORAD_CAT_ID": 30405, "ELEMENT_SET_NO": 999, "REV_AT_EPOCH": 97243, "BSTAR": 0.0021573373, "MEAN_MOTION_DOT": 5.468e-05, "MEAN_MOTION_DDOT": 0}, "tle": {"line1": "1 30405U 99025ADU 25336.08164675  .00005468  00000+0  21573-2 0  9995", "line2": "2 30405  98.7948  69.9787 0051648 183.9789 299.7060 14.28757262972436"}}, "geometry": {"type": "Point", "coordinates": [45.50254718629119, 70.14318781397526]}}, {"type": "Feature", "properties": {"norad_id": 30406, "name": "FENGYUN 1C DEB", "group": "fengyun-1c-debris", "lat": -43.52394364723616, "lon": -122.912266630991, "alt_km": 965.4795837799411, "timestamp": "2025-12-02T23:34:15.792617+00:00", "meta": {"OBJECT_NAME": "FENGYUN 1C DEB", "OBJECT_ID": "1999-025ADV", "EPOCH": "2025-12-02T10:29:05.771040", "MEAN_MOTION": 13.59146513, "ECCENTRICITY": 0.028281, "INCLINATION": 98.6203, "RA_OF_ASC_NODE": 228.3241, "ARG_OF_PERICENTER": 26.4858, "MEAN_ANOMALY": 145.9862, "EPHEMERIS_TYPE": 0, "CLASSIFICATION_TYPE": "U", "NORAD_CAT_ID": 30406, "ELEMENT_SET_NO": 999, "REV_AT_EPOCH": 93026, "BSTAR": 0.0029792, "MEAN_MOTION_DOT": 2.815e-05, "MEAN_MOTION_DDOT": 0}, "tle": {"line1": "1 30406U 99025ADV 25336.43687235  .00002815  00000+0  29792-2 0  9991", "line2": "2 30406  98.6203 228.3241 0282810  26.4858 145.9862 13.59146513930262"}}, "geometry": {"type": "Point", "coordinates": [-122.912266630991, -43.52394364723616]}}]}